#dP2020  4 26  0  0  0.00000000      96 __u+U ITR00 FIT  IAC
## 2103      0.00000000   900.00000000 58965 0.0000000000000
+  117   C06C07C08C09C10C11C12C13C14C16C19C20C21C22C23C24C25
+        C26C27C28C29C30C32C33C34C35C36C37C38C39C40C43C44C45
+        C46E01E02E03E04E05E07E08E09E11E12E13E14E15E18E19E21
+        E24E25E26E27E30E31E33E36G01G02G03G04G05G06G07G08G09
+        G10G11G12G13G14G15G16G17G18G19G20G21G22G23G24G25G26
+        G27G28G29G30G31G32J01J02J03R01R02R03R04R05R07R08R09
+        R11R12R13R14R15R16R17R18R19R20R21R22R23R24R26  0  0
++         9  8  8  7  8 11  8  8  7  9  8  7  8  8  7  8  8
++         7  6  6  7  8  7  7  6  8  7  8 13 13 13  9 11 10
++         9  6  7  7  6  7  6  6  7  6  7  7  7  7  7  6  7
++         6  6  7  6  6  7  6  6  6  6  6  6  5  5  5  6  7
++         5  7  5  6  6  6  5  6  5  6  5  6  6  7  6  6  5
++         6  6  6  6  7  6  9  9  9  7  6  7  6  5  6  8  7
++         6  6  7  6  6  6  7  6  6  7  7  6  6  8  6  0  0
%c M  cc GPS ccc cccc cccc cccc cccc ccccc ccccc ccccc ccccc
%c cc cc ccc ccc cccc cccc cccc cccc ccccc ccccc ccccc ccccc
%f  0.0000000  0.000000000  0.00000000000  0.000000000000000
%f  0.0000000  0.000000000  0.00000000000  0.000000000000000
%i    0    0    0    0      0      0      0      0         0
%i    0    0    0    0      0      0      0      0         0
/* INFORMATION & ANALYSIS CENTER (IAC)      ULTRA-RAPID DATA
/* S/V CLOCKS ARE ALIGNED TO GNSS TIME                      
/* G:C1WC2W R:C1PC2P E:C1XC5X C:C2IC6I J:C1CC2S             
/* PCV:IGS14_2101 OL/AL:FES2004  NONE     YN ORB:CoN CLK:CoN
*  2020 04 26 21  0  0.00000000
PC06 -16286.584196  20781.924455  33186.487411    465.698726
PC07 -23254.968017  35141.728696  -4795.132633    832.204295
PC08  -6671.691216  31401.225835 -27065.768993   -221.482387
PC09   1697.372730  25567.896050  33805.162596    499.872699
PC10 -11196.961219  36762.137267 -17652.270730   -896.525403
PC11 -24800.545042 -12760.801729  -1422.861516   -327.894398
PC12 -13234.044832 -18940.343585  15693.410543    358.846235
PC13   3224.196529  39071.382978 -15095.103043    403.654863
PC14 -19780.153689  -3544.695174 -19352.391833    340.354619
PC16 -12277.482115  21667.363232  34071.287999   -665.058135
PC19  24195.511473  -4447.426479  13188.421826    394.417354
PC20  12831.070615  10416.331603  22505.331843   -895.750321
PC21   6601.937846 -19571.267435 -18728.510134   -330.816070
PC22  21735.986296 -16998.196736  -4036.102010   -823.145112
PC23 -11979.388995  18175.994898  17463.189852   -896.157850
PC24 -10670.599620 -21466.452382  14293.337817   -842.924563
PC25 -16173.224245  -1452.528623  22690.902506   -596.677410
PC26   -226.185690 -27875.473669  -1616.092647    658.732883
PC27   3369.277936  18324.537593 -20798.296645    319.791965
PC28 -15598.795067   8371.682945 -21570.317479    310.833328
PC29  25581.605026   5440.343236   9737.291601    220.382765
PC30  20734.500354  16848.285608  -8107.800307    308.055825
PC32  -6424.967606  19652.555864  18768.256237   -907.468326
PC33 -24182.611158   4562.589761 -13164.721448   -855.723557
PC34 -20938.185904 -16747.346482   7679.200087   -667.261170
PC35  15505.608480  -8813.186084  21470.618617   -872.772751
PC36  16116.771870   2088.072687 -22664.995363   -824.434666
PC37   -853.316058  27796.891229   2257.993458   -842.991320
PC38  -4523.060717  35209.059800 -22681.169086     74.561082
PC39  -8731.828193  22920.181159  34309.582797     14.684145
PC40 -17929.649622  33963.739791 -17593.503657 999999.999999
PC43 -25595.745955  -5734.876816  -9489.641605 999999.999999
PC44  -3667.226860 -18235.832713  20786.722812   -191.691075
PC45  11835.340840 -18192.111656 -17548.439054    118.094768
PC46  10895.471243  21051.859361 -14697.591560    865.400164
PE01  12187.736098 -26959.521995   -944.241473   -844.209621
PE02 -12126.171738  26982.214627    847.233229    129.211070
PE03 -13795.975959  16334.551744  20481.983397   -292.232351
PE04  -8449.343582 -15807.395355 -23545.508775   -513.529004
PE05 -28188.553260   7280.006851   5364.219402   -385.259729
PE07  26012.198457   5977.026869  12799.524333   -373.639441
PE08   8747.778745  15564.383228  23614.911953   6186.698399
PE09 -26114.581804  -5646.297208 -12747.885837   6080.244290
PE11 -21946.034856 -16285.317044 -11346.220170   2492.169436
PE12 -12910.514878 -25405.061100   7959.442313   5834.593817
PE13  21966.551434  16432.379652  11142.081123    400.378243
PE14 -27969.884692   3043.492865 -10846.737754   -992.259018
PE15  13206.143265  25330.135402  -7769.576229    869.100839
PE18  25884.504424   7279.297380  -1429.002431  -1090.965070
PE19  15902.472219 -15682.880840 -19415.521972  -1193.299621
PE21  18924.163222 -14043.328529 -17918.718864   -595.687398
PE24 -14631.226381  -7621.766078  24560.992058   5486.623387
PE25 -18930.601651  13927.822780  17995.587894   -509.676455
PE26  17781.426154  -2484.847762  23539.945025   3257.040981
PE27  14733.783545   7304.149997 -24613.334483    232.523270
PE30   1606.358894  24448.737096 -16613.793854   3954.487487
PE31  -1911.161885 -24275.128762  16830.540815   -472.398335
PE33   3342.123461 -19347.799989  22153.260347   -467.962827
PE36 -17831.250093   2122.709181 -23522.269053    567.822639
PG01  16237.942529   3933.451663  20514.181374   -367.650897
PG02 -13774.148293 -22218.253752  -4227.724430   -446.138922
PG03  19989.908126  -7718.686288  15567.341931   -157.462168
PG04  25558.639005   -428.765786  -7258.287273    -81.504892
PG05  -9999.725825 -12180.165380 -21494.181283    -11.576862
PG06  -6679.442065 -25294.581761   4498.856679 999999.999999
PG07   9081.569775 -15041.810427 -19469.647303   -267.670326
PG08  25543.009544   6467.386858  -4291.731870    -31.990908
PG09  19144.568428  -8968.164379 -16139.367647   -205.746209
PG10  -9480.148840  22731.499831   9717.712838   -322.734768
PG11  22250.581331   9680.275871   9950.732585   -293.978215
PG12 -19931.030237   5348.541782  16392.203290    124.716565
PG13 -20655.388344 -13293.207222 -10336.010671      5.299230
PG14   7938.366211  16177.712914  19917.277049    -16.972999
PG15 -26172.421891  -4223.253151  -3993.437451   -235.264617
PG16   9712.205388  11390.094046 -22138.339126   -151.225222
PG17   2768.194272 -14640.742356  22409.661692    255.241717
PG18 -10554.878467  12966.198902 -20645.039089    170.154820
PG19  -6103.960931 -15594.824455  20319.898841   -166.731110
PG20 -15085.167655  21592.274117  -2407.086051    527.772713
PG21  -7240.123343  16311.984348 -18977.876022     -9.034682
PG22  17403.289568   1105.524461  20219.998113   -783.945422
PG23  22049.042905  -6791.531595 -13156.795844   -118.962917
PG24 -17742.577816  -5044.164513  19037.047707    -12.249943
PG25 -19772.936721  15126.402023   8619.457672     -0.416718
PG26   1069.170675  19776.736227 -17624.812333    195.164341
PG27  19234.660913  12384.909622 -13915.709358   -277.747764
PG28  10030.509173 -21931.116908  11871.305665    722.247561
PG29 -21588.485827   5119.489125 -14656.323202    -90.477056
PG30   1471.239305 -23286.186577 -12454.678181   -207.197766
PG31   6872.433358  25219.319700   2966.011155    -38.588641
PG32  -1078.756450  15330.298492  21746.518093    268.227573
PJ01 -29723.189711  29174.336891  11744.224368   -315.572875
PJ02 -28698.480088  27129.287991  19442.205745     -2.575326
PJ03 -28688.037801  15790.705459 -21949.831124     -2.369810
PR01  -8091.913886  13746.311322  19918.130655     60.621029
PR02  13417.756363   5503.207796  21043.674805    423.767576
PR03  23628.866346  -4954.296684   8352.253830     13.987072
PR04  20328.546480 -12494.254816  -8986.956193     47.007013
PR05   5625.196599 -12904.368597 -21260.533635     49.372908
PR07 -23705.569152   5306.795995  -7675.994696    -35.891464
PR08 -20271.837072  12553.238239   9104.406354    -51.872735
PR09  -8235.184884 -12819.415112  20447.763795    129.414289
PR11  -9332.498190  19868.794379  13043.461470    -21.547123
PR12  -2221.230551  25191.941406  -3223.472405    125.871101
PR13   6622.011954  16253.344817 -18532.109961    -37.926083
PR14  11360.824864  -2223.348900 -22721.506482     50.582131
PR15   9561.110146 -19206.891052 -13782.781245    106.390838
PR16   1463.871669 -25254.985805   3721.898713     -3.076607
PR17  19928.208620   8046.196495  13724.305539    320.323351
PR18  10252.131378  -4927.465742  22851.531947     33.367189
PR19  -4244.103038 -15294.777334  19965.899147    -90.562121
PR20 -18032.973726 -17605.289023   3772.185752   -410.169247
PR21 -19630.977644  -7495.525230 -14475.159950   -120.617863
PR22  -7934.220094   6933.957041 -23219.982893      1.578131
PR23  10212.664581  17404.081247 -15617.222037    301.722569
PR24  18432.370182  17376.059683  -2963.349878     -4.120304
PR26 -16122.696475 -17966.957663   8284.881419   -397.511810
EOF
